*******************************************************************************
JPL/HORIZONS                 3150 Tosa (1983 CB)           2023-Sep-04 11:22:00
Rec #:    3150 (+COV) Soln.date: 2023-Aug-23_07:19:31   # obs: 3996 (1966-2023)
 
IAU76/J2000 helio. ecliptic osc. elements (au, days, deg., period=Julian yrs):
 
  EPOCH=  2458377.5 ! 2018-Sep-16.00 (TDB)         Residual RMS= .2014
   EC= .1186447344056585   QR= 2.822384415715937   TP= 2458437.7171656857
   OM= 350.2811347607321   W=  271.9402274134625   IN= 22.05028623682434
   A= 3.202323201430768    MA= 349.6431749231793   ADIST= 3.5822619871456
   PER= 5.73068            N= .171991241           ANGMOM= .030565789
   DAN= 3.14461            DDN= 3.16998            L= 262.3743493
   B= -22.0369818          MOID= 1.91772997        TP= 2018-Nov-15.2171656857
 
Asteroid physical parameters (km, seconds, rotational period in hours):
   GM= n.a.                RAD= 16.7395            ROTPER= n.a.
   H= 11.29                G= .150                 B-V= n.a.
                           ALBEDO= .033            STYP= n.a.

ASTEROID comments: 
1: soln ref.= JPL#60, OCC=0
2: source=ORB
*******************************************************************************


*******************************************************************************
Ephemeris / API_USER Mon Sep  4 11:22:00 2023 Pasadena, USA      / Horizons
*******************************************************************************
Target body name: 3150 Tosa (1983 CB)             {source: JPL#60}
Center body name: Solar System Barycenter (0)     {source: DE441}
Center-site name: BODY CENTER
*******************************************************************************
Start time      : A.D. 2023-Aug-12 00:00:00.0000 TDB
Stop  time      : A.D. 2023-Aug-13 00:00:00.0000 TDB
Step-size       : 2880 minutes
*******************************************************************************
Center geodetic : 0.0, 0.0, 0.0                   {E-lon(deg),Lat(deg),Alt(km)}
Center cylindric: 0.0, 0.0, 0.0                   {E-lon(deg),Dxy(km),Dz(km)}
Center radii    : (undefined)
Small perturbers: Yes                             {source: SB441-N16}
Output units    : KM-S
Calendar mode   : Mixed Julian/Gregorian
Output type     : GEOMETRIC cartesian states
Output format   : 2 (position and velocity)
Reference frame : Ecliptic of J2000.0
*******************************************************************************
Initial IAU76/J2000 heliocentric ecliptic osculating elements (au, days, deg.):
  EPOCH=  2458377.5 ! 2018-Sep-16.00 (TDB)         Residual RMS= .2014         
   EC= .1186447344056585   QR= 2.822384415715937   TP= 2458437.7171656857      
   OM= 350.2811347607321   W=  271.9402274134625   IN= 22.05028623682434       
  Equivalent ICRF heliocentric cartesian coordinates (au, au/d):
   X=-9.796810253761514E-01  Y=-1.826311751090760E+00  Z=-1.927586992630096E+00
  VX= 1.019953051304508E-02 VY=-2.925235707767136E-03 VZ=-2.026764612777663E-03
Asteroid physical parameters (km, seconds, rotational period in hours):        
   GM= n.a.                RAD= 16.7395            ROTPER= n.a.                
   H= 11.29                G= .150                 B-V= n.a.                   
                           ALBEDO= .033            STYP= n.a.                  
*******************************************************************************
JDTDB
   X     Y     Z
   VX    VY    VZ
*******************************************************************************
$$SOE
2460168.500000000 = A.D. 2023-Aug-12 00:00:00.0000 TDB 
 X =-4.540025457023403E+08 Y =-5.056118589225530E+07 Z =-5.114823742021581E+07
 VX= 4.334328241059569E+00 VY=-1.574925731267803E+01 VZ=-5.983573037844258E+00
$$EOE
*******************************************************************************
 
TIME

  Barycentric Dynamical Time ("TDB" or T_eph) output was requested. This
continuous coordinate time is equivalent to the relativistic proper time
of a clock at rest in a reference frame co-moving with the solar system
barycenter but outside the system's gravity well. It is the independent
variable in the solar system relativistic equations of motion.

  TDB runs at a uniform rate of one SI second per second and is independent
of irregularities in Earth's rotation.
 
CALENDAR SYSTEM

  Mixed calendar mode was active such that calendar dates after AD 1582-Oct-15
(if any) are in the modern Gregorian system. Dates prior to 1582-Oct-5 (if any)
are in the Julian calendar system, which is automatically extended for dates
prior to its adoption on 45-Jan-1 BC.  The Julian calendar is useful for
matching historical dates. The Gregorian calendar more accurately corresponds
to the Earth's orbital motion and seasons. A "Gregorian-only" calendar mode is
available if such physical events are the primary interest.

REFERENCE FRAME AND COORDINATES

  Ecliptic at the standard reference epoch

    Reference epoch: J2000.0
    X-Y plane: adopted Earth orbital plane at the reference epoch
               Note: IAU76 obliquity of 84381.448 arcseconds wrt ICRF X-Y plane
    X-axis   : ICRF
    Z-axis   : perpendicular to the X-Y plane in the directional (+ or -) sense
               of Earth's north pole at the reference epoch.

  Symbol meaning:

    JDTDB    Julian Day Number, Barycentric Dynamical Time
      X      X-component of position vector (km)
      Y      Y-component of position vector (km)
      Z      Z-component of position vector (km)
      VX     X-component of velocity vector (km/sec)                           
      VY     Y-component of velocity vector (km/sec)                           
      VZ     Z-component of velocity vector (km/sec)                           

ABERRATIONS AND CORRECTIONS

 Geometric state vectors have NO corrections or aberrations applied.

Computations by ...

    Solar System Dynamics Group, Horizons On-Line Ephemeris System
    4800 Oak Grove Drive, Jet Propulsion Laboratory
    Pasadena, CA  91109   USA

    General site: https://ssd.jpl.nasa.gov/
    Mailing list: https://ssd.jpl.nasa.gov/email_list.html
    System news : https://ssd.jpl.nasa.gov/horizons/news.html
    User Guide  : https://ssd.jpl.nasa.gov/horizons/manual.html
    Connect     : browser        https://ssd.jpl.nasa.gov/horizons/app.html#/x
                  API            https://ssd-api.jpl.nasa.gov/doc/horizons.html
                  command-line   telnet ssd.jpl.nasa.gov 6775
                  e-mail/batch   https://ssd.jpl.nasa.gov/ftp/ssd/hrzn_batch.txt
                  scripts        https://ssd.jpl.nasa.gov/ftp/ssd/SCRIPTS
    Author      : Jon.D.Giorgini@jpl.nasa.gov
*******************************************************************************
